{
  "type": "FeatureCollection",
  "features": [
    {
      "type": "Feature",
      "properties": {
        "norad_id": 43719,
        "name": "HYSIS",
        "group": "resource",
        "lat": -72.90090704302925,
        "lon": 75.43289974302213,
        "alt_km": 641.6005518107513,
        "timestamp": "2025-12-11T05:00:25.968731+00:00",
        "meta_object_name": "HYSIS",
        "meta_object_id": "2018-096A",
        "meta_epoch": "2025-12-10T22:50:55.910400",
        "meta_mean_motion": 14.78637269,
        "meta_eccentricity": 0.00014853,
        "meta_inclination": 98.0094,
        "meta_ra_of_asc_node": 47.938,
        "meta_arg_of_pericenter": 56.0151,
        "meta_mean_anomaly": 304.1201,
        "meta_ephemeris_type": 0,
        "meta_classification_type": "U",
        "meta_norad_cat_id": 43719,
        "meta_element_set_no": 999,
        "meta_rev_at_epoch": 37960,
        "meta_bstar": 0.00029512157,
        "meta_mean_motion_dot": 2.11e-05,
        "meta_mean_motion_ddot": 0,
        "tle_line1": "1 43719U 18096A   25344.95203600  .00002110  00000+0  29512-3 0  9996",
        "tle_line2": "2 43719  98.0094  47.9380 0001485  56.0151 304.1201 14.78637269379602"
      },
      "geometry": {
        "type": "Point",
        "coordinates": [
          75.43289974302213,
          -72.90090704302925
        ]
      }
    },
    {
      "type": "Feature",
      "properties": {
        "norad_id": 43783,
        "name": "KAZSTSAT",
        "group": "resource",
        "lat": 46.94777426270313,
        "lon": 12.401155721178817,
        "alt_km": 563.4399504363273,
        "timestamp": "2025-12-11T05:00:25.968741+00:00",
        "meta_object_name": "KAZSTSAT",
        "meta_object_id": "2018-099AB",
        "meta_epoch": "2025-12-10T22:23:22.416576",
        "meta_mean_motion": 14.99344269,
        "meta_eccentricity": 0.00059921,
        "meta_inclination": 97.4559,
        "meta_ra_of_asc_node": 20.1955,
        "meta_arg_of_pericenter": 337.8308,
        "meta_mean_anomaly": 22.2656,
        "meta_ephemeris_type": 0,
        "meta_classification_type": "U",
        "meta_norad_cat_id": 43783,
        "meta_element_set_no": 999,
        "meta_rev_at_epoch": 38309,
        "meta_bstar": 0.00018795666,
        "meta_mean_motion_dot": 2.242e-05,
        "meta_mean_motion_ddot": 0,
        "tle_line1": "1 43783U 18099AB  25344.93289834  .00002242  00000+0  18796-3 0  9999",
        "tle_line2": "2 43783  97.4559  20.1955 0005992 337.8308  22.2656 14.99344269383092"
      },
      "geometry": {
        "type": "Point",
        "coordinates": [
          12.401155721178817,
          46.94777426270313
        ]
      }
    },
    {
      "type": "Feature",
      "properties": {
        "norad_id": 43831,
        "name": "SAUDISAT 5A",
        "group": "resource",
        "lat": -44.2417629378234,
        "lon": 52.63588467477672,
        "alt_km": 500.36642174453755,
        "timestamp": "2025-12-11T05:00:25.968751+00:00",
        "meta_object_name": "SAUDISAT 5A",
        "meta_object_id": "2018-102A",
        "meta_epoch": "2025-12-10T22:54:22.874688",
        "meta_mean_motion": 15.25619492,
        "meta_eccentricity": 0.00118134,
        "meta_inclination": 97.3353,
        "meta_ra_of_asc_node": 45.1796,
        "meta_arg_of_pericenter": 81.6671,
        "meta_mean_anomaly": 278.5906,
        "meta_ephemeris_type": 0,
        "meta_classification_type": "U",
        "meta_norad_cat_id": 43831,
        "meta_element_set_no": 999,
        "meta_rev_at_epoch": 38695,
        "meta_bstar": 0.0003568238,
        "meta_mean_motion_dot": 9.019e-05,
        "meta_mean_motion_ddot": 0,
        "tle_line1": "1 43831U 18102A   25344.95443142  .00009019  00000+0  35682-3 0  9996",
        "tle_line2": "2 43831  97.3353  45.1796 0011813  81.6671 278.5906 15.25619492386958"
      },
      "geometry": {
        "type": "Point",
        "coordinates": [
          52.63588467477672,
          -44.2417629378234
        ]
      }
    },
    {
      "type": "Feature",
      "properties": {
        "norad_id": 43833,
        "name": "SAUDISAT 5B",
        "group": "resource",
        "lat": 5.4911995668422175,
        "lon": 47.454305030328484,
        "alt_km": 488.3316980830414,
        "timestamp": "2025-12-11T05:00:25.968761+00:00",
        "meta_object_name": "SAUDISAT 5B",
        "meta_object_id": "2018-102C",
        "meta_epoch": "2025-12-10T22:41:16.505088",
        "meta_mean_motion": 15.25972261,
        "meta_eccentricity": 0.00125089,
        "meta_inclination": 97.3447,
        "meta_ra_of_asc_node": 47.9061,
        "meta_arg_of_pericenter": 84.0407,
        "meta_mean_anomaly": 276.2257,
        "meta_ephemeris_type": 0,
        "meta_classification_type": "U",
        "meta_norad_cat_id": 43833,
        "meta_element_set_no": 999,
        "meta_rev_at_epoch": 38706,
        "meta_bstar": 0.0003520255,
        "meta_mean_motion_dot": 8.994e-05,
        "meta_mean_motion_ddot": 0,
        "tle_line1": "1 43833U 18102C   25344.94532992  .00008994  00000+0  35203-3 0  9999",
        "tle_line2": "2 43833  97.3447  47.9061 0012508  84.0407 276.2257 15.25972261387068"
      },
      "geometry": {
        "type": "Point",
        "coordinates": [
          47.454305030328484,
          5.4911995668422175
        ]
      }
    },
    {
      "type": "Feature",
      "properties": {
        "norad_id": 44622,
        "name": "GAOFEN-10R",
        "group": "resource",
        "lat": -6.874449248678264,
        "lon": 111.73391541156504,
        "alt_km": 628.7321863999696,
        "timestamp": "2025-12-11T05:00:25.968771+00:00",
        "meta_object_name": "GAOFEN-10R",
        "meta_object_id": "2019-066A",
        "meta_epoch": "2025-12-10T23:18:32.976000",
        "meta_mean_motion": 14.82782297,
        "meta_eccentricity": 0.00079616,
        "meta_inclination": 98.0276,
        "meta_ra_of_asc_node": 292.4705,
        "meta_arg_of_pericenter": 46.9274,
        "meta_mean_anomaly": 313.2604,
        "meta_ephemeris_type": 0,
        "meta_classification_type": "U",
        "meta_norad_cat_id": 44622,
        "meta_element_set_no": 999,
        "meta_rev_at_epoch": 33448,
        "meta_bstar": 0.00032074057,
        "meta_mean_motion_dot": 2.54e-05,
        "meta_mean_motion_ddot": 0,
        "tle_line1": "1 44622U 19066A   25344.97121500  .00002540  00000+0  32074-3 0  9992",
        "tle_line2": "2 44622  98.0276 292.4705 0007961  46.9274 313.2604 14.82782297334487"
      },
      "geometry": {
        "type": "Point",
        "coordinates": [
          111.73391541156504,
          -6.874449248678264
        ]
      }
    },
    {
      "type": "Feature",
      "properties": {
        "norad_id": 44804,
        "name": "CARTOSAT-3",
        "group": "resource",
        "lat": 29.76436114757035,
        "lon": -130.89191405744842,
        "alt_km": 501.3106156091917,
        "timestamp": "2025-12-11T05:00:25.968781+00:00",
        "meta_object_name": "CARTOSAT-3",
        "meta_object_id": "2019-081A",
        "meta_epoch": "2025-12-10T23:36:33.134112",
        "meta_mean_motion": 15.19346404,
        "meta_eccentricity": 0.00140149,
        "meta_inclination": 97.4579,
        "meta_ra_of_asc_node": 44.5897,
        "meta_arg_of_pericenter": 92.3425,
        "meta_mean_anomaly": 267.9414,
        "meta_ephemeris_type": 0,
        "meta_classification_type": "U",
        "meta_norad_cat_id": 44804,
        "meta_element_set_no": 999,
        "meta_rev_at_epoch": 33489,
        "meta_bstar": 0.00032422232,
        "meta_mean_motion_dot": 6.802e-05,
        "meta_mean_motion_ddot": 0,
        "tle_line1": "1 44804U 19081A   25344.98371683  .00006802  00000+0  32422-3 0  9993",
        "tle_line2": "2 44804  97.4579  44.5897 0014014  92.3425 267.9414 15.19346404334892"
      },
      "geometry": {
        "type": "Point",
        "coordinates": [
          -130.89191405744842,
          29.76436114757035
        ]
      }
    },
    {
      "type": "Feature",
      "properties": {
        "norad_id": 44819,
        "name": "GAOFEN-12 01",
        "group": "resource",
        "lat": 72.6154678969922,
        "lon": -162.4592063929723,
        "alt_km": 620.9387605772754,
        "timestamp": "2025-12-11T05:00:25.968792+00:00",
        "meta_object_name": "GAOFEN-12 01",
        "meta_object_id": "2019-082A",
        "meta_epoch": "2025-12-10T23:39:59.242176",
        "meta_mean_motion": 14.8065399,
        "meta_eccentricity": 0.00012352,
        "meta_inclination": 97.8127,
        "meta_ra_of_asc_node": 351.3131,
        "meta_arg_of_pericenter": 245.2166,
        "meta_mean_anomaly": 114.8918,
        "meta_ephemeris_type": 0,
        "meta_classification_type": "U",
        "meta_norad_cat_id": 44819,
        "meta_element_set_no": 999,
        "meta_rev_at_epoch": 32624,
        "meta_bstar": 0.00011037527,
        "meta_mean_motion_dot": 7.97e-06,
        "meta_mean_motion_ddot": 0,
        "tle_line1": "1 44819U 19082A   25344.98610234  .00000797  00000+0  11038-3 0  9995",
        "tle_line2": "2 44819  97.8127 351.3131 0001235 245.2166 114.8918 14.80653990326240"
      },
      "geometry": {
        "type": "Point",
        "coordinates": [
          -162.4592063929723,
          72.6154678969922
        ]
      }
    }
  ]
}